{
  "norad_id": 54157,
  "name": "STARLINK-5290",
  "history": [
    {
      "epoch": "2026-03-28T20:53:32.703360Z",
      "apogee_km": 540.7085525234215,
      "perigee_km": 538.7549463885744,
      "latitude_deg": 9.95709528479606e-06,
      "longitude_deg": 148.29648638639895,
      "height_km": 540.6042985283015,
      "semi_major_axis_km": 6917.868749455997,
      "eccentricity": 0.0001412,
      "inclination_deg": 53.2167,
      "raan_deg": 287.9675,
      "arg_perigee_deg": 88.6501,
      "mean_anomaly_deg": 271.4653,
      "mean_motion_rev_day": 15.08843808
    }
  ]
}