{"fetched_at":"2026-03-30T13:17:50Z","count":15418,"tles":[{"name":"STARLINK-5290","line1":"1 54157U 22141A   26087.87051740  .00000400  00000+0  43228-4 0  9993","line2":"2 54157  53.2167 287.9675 0001412  88.6501 271.4653 15.08843808188615","category":"Starlink"}]}